NORAD_CAT_ID,OBJECT_NAME,OBJECT_TYPE,EPOCH,MEAN_MOTION,ECCENTRICITY,INCLINATION,RA_OF_ASC_NODE,ARG_OF_PERICENTER,MEAN_ANOMALY,BSTAR,MEAN_MOTION_DOT,MEAN_MOTION_DDOT,TLE_LINE0,TLE_LINE1,TLE_LINE2,SEMIMAJOR_AXIS,PERIOD,APOGEE,PERIGEE,DECAYED
55953.0,STARLINK-5889,PAYLOAD,2023-11-17 22:42:31,14.98342486,6.62e-05,70.0076,229.5014,351.578,8.5368,-2.2606e-05,-3.62e-06,0.0,0 STARLINK-5889,1 55953U 23037AR  23321.94619648 -.00000362  00000-0 -22606-4 0  9993,2 55953  70.0076 229.5014 0000662 351.5780   8.5368 14.98342486 38230,6950.154,96.106,572.479,571.559,0.0
55953.0,STARLINK-5889,PAYLOAD,2023-11-18 03:30:58,14.9830392,0.0002236,70.0046,228.9948,244.3166,115.7762,-0.00078289,-9.415e-05,0.0,0 STARLINK-5889,1 55953U 23037AR  23322.14651159 -.00009415  00000-0 -78289-3 0  9994,2 55953  70.0046 228.9948 0002236 244.3166 115.7762 14.98303920 38602,6950.274,96.109,573.693,570.584,0.0
55953.0,STARLINK-5889,PAYLOAD,2023-11-18 11:31:37,14.98316004,0.000164,70.0045,228.1531,273.2351,86.862,-0.00021484,-2.654e-05,0.0,0 STARLINK-5889,1 55953U 23037AR  23322.48029249 -.00002654  00000-0 -21484-3 0  9993,2 55953  70.0045 228.1531 0001640 273.2351  86.8620 14.98316004 38659,6950.236,96.108,573.241,570.961,0.0
55953.0,STARLINK-5889,PAYLOAD,2023-11-19 03:32:55,14.98334183,0.0002856,70.0003,226.4708,266.2548,93.8284,4.6734e-05,4.65e-06,0.0,0 STARLINK-5889,1 55953U 23037AR  23323.14787037  .00000465  00000-0  46734-4 0  9995,2 55953  70.0003 226.4708 0002856 266.2548  93.8284 14.98334183 38753,6950.18,96.107,574.03,570.06,0.0
55953.0,STARLINK-5889,PAYLOAD,2023-11-19 11:33:36,14.9832953,0.0002629,70.0015,225.6291,268.2216,91.8642,3.879e-05,3.7e-06,0.0,0 STARLINK-5889,1 55953U 23037AR  23323.48167455  .00000370  00000-0  38790-4 0  9996,2 55953  70.0015 225.6291 0002629 268.2216  91.8642 14.98329530 38460,6950.194,96.107,573.887,570.232,0.0
55953.0,STARLINK-5889,PAYLOAD,2023-11-19 21:10:24,14.98330796,0.0002904,70.0,224.6197,268.9802,91.1024,5.5471e-05,5.69e-06,0.0,0 STARLINK-5889,1 55953U 23037AR  23323.88223116  .00000569  00000-0  55471-4 0  9992,2 55953  70.0000 224.6197 0002904 268.9802  91.1024 14.98330796 38522,6950.19,96.107,574.074,570.037,0.0
55953.0,STARLINK-5889,PAYLOAD,2023-11-20 03:34:56,14.98347285,0.0002904,70.0002,223.9463,270.5152,89.5675,-0.00016797,-2.097e-05,0.0,0 STARLINK-5889,1 55953U 23037AR  23324.14926695 -.00002097  00000-0 -16797-3 0  9991,2 55953  70.0002 223.9463 0002904 270.5152  89.5675 14.98347285 38905,6950.139,96.106,574.023,569.986,0.0
55953.0,STARLINK-5889,PAYLOAD,2023-11-20 05:11:04,14.98339455,0.0002846,70.0002,223.7781,269.7205,90.3628,-1.58e-05,-2.82e-06,0.0,0 STARLINK-5889,1 55953U 23037AR  23324.21602718 -.00000282  00000-0 -15800-4 0  9995,2 55953  70.0002 223.7781 0002846 269.7205  90.3628 14.98339455 38571,6950.164,96.106,574.007,570.051,0.0
55953.0,STARLINK-5889,PAYLOAD,2023-11-20 19:36:17,14.98331198,0.000289,70.0005,222.2633,269.3886,90.6942,-2.5187e-05,-3.93e-06,0.0,0 STARLINK-5889,1 55953U 23037AR  23324.81687131 -.00000393  00000-0 -25187-4 0  9995,2 55953  70.0005 222.2633 0002890 269.3886  90.6942 14.98331198 39001,6950.189,96.107,574.063,570.046,0.0
55953.0,STARLINK-5889,PAYLOAD,2023-11-20 21:12:25,14.98332019,0.0002817,70.0003,222.095,269.6066,90.477,-4.7124e-05,-6.55e-06,0.0,0 STARLINK-5889,1 55953U 23037AR  23324.88363146 -.00000655  00000-0 -47124-4 0  9995,2 55953  70.0003 222.0950 0002817 269.6066  90.4770 14.98332019 38673,6950.187,96.107,574.01,570.094,0.0
55953.0,STARLINK-5889,PAYLOAD,2023-11-21 03:36:57,14.9835911,0.0002879,70.0003,221.4217,267.5927,92.4902,-0.00040518,-4.928e-05,0.0,0 STARLINK-5889,1 55953U 23037AR  23325.15066478 -.00004928  00000-0 -40518-3 0  9990,2 55953  70.0003 221.4217 0002879 267.5927  92.4902 14.98359110 39056,6950.103,96.105,573.969,569.967,0.0
55953.0,STARLINK-5889,PAYLOAD,2023-11-21 10:01:29,14.98350356,0.000284,70.0003,220.7486,268.0939,91.9895,-0.00038936,-4.738e-05,0.0,0 STARLINK-5889,1 55953U 23037AR  23325.41770637 -.00004738  00000-0 -38936-3 0  9998,2 55953  70.0003 220.7486 0002840 268.0939  91.9895 14.98350356 39095,6950.13,96.106,573.969,570.021,0.0
55953.0,STARLINK-5889,PAYLOAD,2023-11-21 21:14:26,14.98332034,0.0002567,70.0005,219.5709,270.5673,89.5192,-0.00010327,-1.325e-05,0.0,0 STARLINK-5889,1 55953U 23037AR  23325.88503229 -.00001325  00000-0 -10327-3 0  9993,2 55953  70.0005 219.5709 0002567 270.5673  89.5192 14.98332034 38826,6950.187,96.107,573.836,570.267,0.0
55953.0,STARLINK-5889,PAYLOAD,2023-11-22 03:38:58,14.98333342,0.0002608,70.0005,218.8977,265.1663,94.9198,-8.4048e-06,-1.93e-06,0.0,0 STARLINK-5889,1 55953U 23037AR  23326.15206797 -.00000193  00000-0 -84048-5 0  9999,2 55953  70.0005 218.8977 0002608 265.1663  94.9198 14.98333342 39202,6950.183,96.107,573.86,570.235,0.0
55953.0,STARLINK-5889,PAYLOAD,2023-11-22 19:40:19,14.98311933,0.0003075,70.0001,217.2128,273.8949,86.1858,0.00036162,4.222e-05,0.0,0 STARLINK-5889,1 55953U 23037AR  23326.81966802  .00004222  00000-0  36162-3 0  9999,2 55953  70.0001 217.2128 0003075 273.8949  86.1858 14.98311933 39300,6950.249,96.108,574.251,569.977,0.0
55953.0,STARLINK-5889,PAYLOAD,2023-11-22 21:16:27,14.983322,0.0002711,70.0,217.0446,264.9336,95.1514,3.0962e-05,2.77e-06,0.0,0 STARLINK-5889,1 55953U 23037AR  23326.88642583  .00000277  00000-0  30962-4 0  9992,2 55953  70.0000 217.0446 0002711 264.9336  95.1514 14.98332200 38978,6950.186,96.107,573.935,570.167,0.0
55953.0,STARLINK-5889,PAYLOAD,2023-11-23 02:04:50,14.98337752,0.0002513,70.0004,216.5403,259.5739,100.5137,8.6522e-05,9.4e-06,0.0,0 STARLINK-5889,1 55953U 23037AR  23327.08670001  .00000940  00000-0  86522-4 0  9991,2 55953  70.0004 216.5403 0002513 259.5739 100.5137 14.98337752 39347,6950.169,96.107,573.78,570.287,0.0
55953.0,STARLINK-5889,PAYLOAD,2023-11-23 19:42:21,14.98314329,0.0002822,70.0001,214.6895,270.1093,89.9743,-0.00010992,-1.404e-05,0.0,0 STARLINK-5889,1 55953U 23037AR  23327.82108088 -.00001404  00000-0 -10992-3 0  9999,2 55953  70.0001 214.6895 0002822 270.1093  89.9743 14.98314329 39453,6950.241,96.108,574.068,570.145,0.0
55953.0,STARLINK-5889,PAYLOAD,2023-11-23 21:18:29,14.9831638,0.0002785,69.9998,214.5213,269.4803,90.6037,-9.2497e-05,-1.196e-05,0.0,0 STARLINK-5889,1 55953U 23037AR  23327.88783977 -.00001196  00000-0 -92497-4 0  9990,2 55953  69.9998 214.5213 0002785 269.4803  90.6037 14.98316380 39124,6950.235,96.108,574.036,570.164,0.0
55953.0,STARLINK-5889,PAYLOAD,2023-11-24 02:06:53,14.98319819,0.0002892,69.9994,214.0158,269.7518,90.331,-0.0001057,-1.354e-05,0.0,0 STARLINK-5889,1 55953U 23037AR  23328.08811921 -.00001354  00000-0 -10570-3 0  9991,2 55953  69.9994 214.0158 0002892 269.7518  90.3310 14.98319819 39152,6950.224,96.108,574.099,570.079,0.0
55953.0,STARLINK-5889,PAYLOAD,2023-11-24 19:44:21,14.98327751,0.0002691,70.001,212.1659,265.2867,94.7985,-8.9187e-05,-1.157e-05,0.0,0 STARLINK-5889,1 55953U 23037AR  23328.82247569 -.00001157  00000-0 -89187-4 0  9996,2 55953  70.0010 212.1659 0002691 265.2867  94.7985 14.98327751 39604,6950.2,96.107,573.935,570.195,0.0
55953.0,STARLINK-5889,PAYLOAD,2023-11-24 21:20:29,14.98335742,0.0002397,70.001,211.997,245.6496,114.4413,1.0298e-06,-8.1e-07,0.0,0 STARLINK-5889,1 55953U 23037AR  23328.88922769 -.00000081  00000-0  10298-5 0  9996,2 55953  70.0010 211.9970 0002397 245.6496 114.4413 14.98335742 39278,6950.175,96.107,573.706,570.374,0.0
55953.0,STARLINK-5889,PAYLOAD,2023-11-25 02:08:53,14.9833859,0.0002616,70.0,211.4907,266.4702,93.6158,5.3842e-06,-2.9e-07,0.0,0 STARLINK-5889,1 55953U 23037AR  23329.08950504 -.00000029  00000-0  53842-5 0  9991,2 55953  70.0000 211.4907 0002616 266.4702  93.6158 14.98338590 39646,6950.166,96.106,573.849,570.213,0.0
55953.0,STARLINK-5889,PAYLOAD,2023-11-25 21:22:29,14.98338105,0.0002583,70.0007,209.4732,247.8359,112.2526,0.00030441,3.542e-05,0.0,0 STARLINK-5889,1 55953U 23037AR  23329.89061540  .00003542  00000-0  30441-3 0  9993,2 55953  70.0007 209.4732 0002583 247.8359 112.2526 14.98338105 39425,6950.168,96.106,573.828,570.238,0.0
55953.0,STARLINK-5889,PAYLOAD,2023-11-26 02:10:53,14.98336068,0.0002142,70.0024,208.9702,285.0868,75.0054,0.00025186,2.914e-05,0.0,0 STARLINK-5889,1 55953U 23037AR  23330.09090039  .00002914  00000-0  25186-3 0  9994,2 55953  70.0024 208.9702 0002142 285.0868  75.0054 14.98336068 39793,6950.174,96.107,573.528,570.55,0.0
55953.0,STARLINK-5889,PAYLOAD,2023-11-26 19:48:23,14.98321047,0.0002518,70.0027,207.1196,223.8953,136.2006,-0.00010049,-1.291e-05,0.0,0 STARLINK-5889,1 55953U 23037AR  23330.82527715 -.00001291  00000-0 -10049-3 0  9992,2 55953  70.0027 207.1196 0002518 223.8953 136.2006 14.98321047 39907,6950.221,96.108,573.836,570.336,0.0
55953.0,STARLINK-5889,PAYLOAD,2023-11-26 21:24:32,14.98320574,0.0002829,70.0029,206.9508,207.7279,152.3729,-0.00015277,-1.915e-05,0.0,0 STARLINK-5889,1 55953U 23037AR  23330.89203900 -.00001915  00000-0 -15277-3 0  9997,2 55953  70.0029 206.9508 0002829 207.7279 152.3729 14.98320574 39578,6950.222,96.108,574.053,570.121,0.0
55953.0,STARLINK-5889,PAYLOAD,2023-11-27 02:12:56,14.98311443,0.0001797,70.0013,206.4427,246.5847,113.5123,2.169e-06,-6.7e-07,0.0,0 STARLINK-5889,1 55953U 23037AR  23331.09232349 -.00000067  00000-0  21690-5 0  9993,2 55953  70.0013 206.4427 0001797 246.5847 113.5123 14.98311443 39944,6950.25,96.108,573.364,570.866,0.0
55953.0,STARLINK-5889,PAYLOAD,2023-11-27 15:01:56,14.98366406,0.0002043,70.0027,205.0981,241.2499,118.8455,0.00078068,9.243e-05,0.0,0 STARLINK-5889,1 55953U 23037AR  23331.62634761  .00009243  00000-0  78068-3 0  9999,2 55953  70.0027 205.0981 0002043 241.2499 118.8455 14.98366406 39685,6950.08,96.105,573.365,570.525,0.0
55953.0,STARLINK-5889,PAYLOAD,2023-11-27 18:14:16,14.98329513,0.0002761,70.0013,204.7604,265.1723,94.9121,-7.0715e-05,-9.37e-06,0.0,0 STARLINK-5889,1 55953U 23037AR  23331.75991260 -.00000937  00000-0 -70715-4 0  9998,2 55953  70.0013 204.7604 0002761 265.1723  94.9121 14.98329513 40044,6950.194,96.107,573.978,570.14,0.0
